[{"OBJECT_NAME":"ONEWEB-0380","OBJECT_ID":"2021-090AD","EPOCH":"2026-03-09T17:07:25.041792","MEAN_MOTION":13.1972537,"ECCENTRICITY":0.00016776,"INCLINATION":87.923,"RA_OF_ASC_NODE":324.794,"ARG_OF_PERICENTER":73.3398,"MEAN_ANOMALY":286.7919,"EPHEMERIS_TYPE":0,"CLASSIFICATION_TYPE":"U","NORAD_CAT_ID":49306,"ELEMENT_SET_NO":999,"REV_AT_EPOCH":21330,"BSTAR":-0.00045914207,"MEAN_MOTION_DOT":-1.71e-6,"MEAN_MOTION_DDOT":0},{"OBJECT_NAME":"SL-14 DEB","OBJECT_ID":"1991-056AZ","EPOCH":"2026-03-09T07:52:17.853888","MEAN_MOTION":13.18825935,"ECCENTRICITY":0.00163947,"INCLINATION":82.5512,"RA_OF_ASC_NODE":204.5375,"ARG_OF_PERICENTER":357.9962,"MEAN_ANOMALY":2.1093,"EPHEMERIS_TYPE":0,"CLASSIFICATION_TYPE":"U","NORAD_CAT_ID":45311,"ELEMENT_SET_NO":999,"REV_AT_EPOCH":29044,"BSTAR":0.00032109184,"MEAN_MOTION_DOT":1.39e-6,"MEAN_MOTION_DDOT":0}]
